NORAD_CAT_ID,OBJECT_NAME,OBJECT_TYPE,EPOCH,MEAN_MOTION,ECCENTRICITY,INCLINATION,RA_OF_ASC_NODE,ARG_OF_PERICENTER,MEAN_ANOMALY,BSTAR,MEAN_MOTION_DOT,MEAN_MOTION_DDOT,TLE_LINE0,TLE_LINE1,TLE_LINE2,SEMIMAJOR_AXIS,PERIOD,APOGEE,PERIGEE,DECAYED
54806.0,STARLINK-5412,PAYLOAD,2023-01-20 03:15:27,15.73226305,0.000117,53.2149,141.2011,90.3022,269.8132,6.2975e-05,8.237e-05,0.0,0 STARLINK-5412,1 54806U 22175BA  23020.13573077  .00008237  00000-0  62975-4 0  9993,2 54806  53.2149 141.2011 0001170  90.3022 269.8132 15.73226305  4980,6727.82,91.532,350.472,348.898,0.0
54806.0,STARLINK-5412,PAYLOAD,2023-01-20 09:21:23,15.73192431,0.0001213,53.2157,139.9461,62.0417,298.0726,-2.7206e-05,-4.435e-05,0.0,0 STARLINK-5412,1 54806U 22175BA  23020.38985307 -.00004435  00000-0 -27206-4 0  9999,2 54806  53.2157 139.9461 0001213  62.0417 298.0726 15.73192431  5025,6727.917,91.534,350.598,348.966,0.0
54806.0,STARLINK-5412,PAYLOAD,2023-01-20 13:55:49,15.73215183,0.0001104,53.2154,138.9983,98.9024,261.2121,4.5001000000000005e-05,5.704e-05,0.0,0 STARLINK-5412,1 54806U 22175BA  23020.58043143  .00005704  00000-0  45001-4 0  9995,2 54806  53.2154 138.9983 0001104  98.9024 261.2121 15.73215183  5055,6727.852,91.532,350.46,348.974,0.0
54806.0,STARLINK-5412,PAYLOAD,2023-01-21 00:36:11,15.73207491,0.0001395,53.2157,136.7981,108.0935,252.0237,2.317e-05,2.634e-05,0.0,0 STARLINK-5412,1 54806U 22175BA  23021.02512890  .00002634  00000-0  23170-4 0  9997,2 54806  53.2157 136.7981 0001395 108.0935 252.0237 15.73207491  5125,6727.874,91.533,350.677,348.8,0.0
54806.0,STARLINK-5412,PAYLOAD,2023-01-21 11:16:32,15.73192175,8.109999999999999e-05,53.2166,134.5968,113.0097,247.1009,-3.525e-05,-5.561e-05,0.0,0 STARLINK-5412,1 54806U 22175BA  23021.46982402 -.00005561  00000-0 -35250-4 0  9991,2 54806  53.2166 134.5968 0000811 113.0097 247.1009 15.73192175  5194,6727.917,91.534,350.32800000000003,349.237,0.0
54806.0,STARLINK-5412,PAYLOAD,2023-01-21 14:19:30,15.73209853,8.759999999999999e-05,53.217,133.9694,108.1533,251.9582,2.9809e-05,3.568e-05,0.0,0 STARLINK-5412,1 54806U 22175BA  23021.59687703  .00003568  00000-0  29809-4 0  9997,2 54806  53.2170 133.9694 0000876 108.1533 251.9582 15.73209853  5213,6727.866999999999,91.533,350.321,349.14300000000003,0.0
54806.0,STARLINK-5412,PAYLOAD,2023-01-22 10:08:44,15.73211378,8.26e-05,53.215,129.8834,90.3457,269.7658,3.03e-05,3.637e-05,0.0,0 STARLINK-5412,1 54806U 22175BA  23022.42274048  .00003637  00000-0  30300-4 0  9999,2 54806  53.2150 129.8834 0000826  90.3457 269.7658 15.73211378  5343,6727.863,91.533,350.283,349.172,0.0
54806.0,STARLINK-5412,PAYLOAD,2023-01-22 13:11:42,15.73197787,0.0001498,53.2159,129.2551,44.8577,315.2564,3.9342e-06,-6.8e-07,0.0,0 STARLINK-5412,1 54806U 22175BA  23022.54980192 -.00000068  00000-0  39342-5 0  9998,2 54806  53.2159 129.2551 0001498  44.8577 315.2564 15.73197787  5367,6727.901,91.533,350.774,348.759,0.0
54806.0,STARLINK-5412,PAYLOAD,2023-01-22 23:52:04,15.73211165,0.0001057,53.2159,127.0514,84.7399,275.3741,3.3995e-05,4.156e-05,0.0,0 STARLINK-5412,1 54806U 22175BA  23022.99449240  .00004156  00000-0  33995-4 0  9999,2 54806  53.2159 127.0514 0001057  84.7399 275.3741 15.73211165  5436,6727.863,91.533,350.439,349.017,0.0
54806.0,STARLINK-5412,PAYLOAD,2023-01-23 13:35:23,15.73201088,0.0001082999999999,53.216,124.2236,106.9566,253.1573,4.6744e-06,3.7e-07,0.0,0 STARLINK-5412,1 54806U 22175BA  23023.56624084  .00000037  00000-0  46744-5 0  9995,2 54806  53.2160 124.2236 0001083 106.9566 253.1573 15.73201088  5520,6727.892,91.533,350.486,349.028,0.0
54806.0,STARLINK-5412,PAYLOAD,2023-01-25 02:10:55,15.73203378,0.0001485,53.2152,116.6799,76.1474,283.9711,2.0971e-05,2.324e-05,0.0,0 STARLINK-5412,1 54806U 22175BA  23025.09091715  .00002324  00000-0  20971-4 0  9998,2 54806  53.2152 116.6799 0001485  76.1474 283.9711 15.73203378  5767,6727.886,91.533,350.75,348.751,0.0
54806.0,STARLINK-5412,PAYLOAD,2023-01-25 12:51:16,15.73223031,0.000128,53.2149,114.4795,89.6434,270.4732,6.719899999999999e-05,8.83e-05,0.0,0 STARLINK-5412,1 54806U 22175BA  23025.53560523  .00008830  00000-0  67199-4 0  9996,2 54806  53.2149 114.4795 0001280  89.6434 270.4732 15.73223031  5833,6727.83,91.532,350.556,348.833,0.0
54806.0,STARLINK-5412,PAYLOAD,2023-01-26 11:43:28,15.73212703,0.0001453999999999,53.2155,109.7628,80.0649,280.0536,3.8067e-05,4.728e-05,0.0,0 STARLINK-5412,1 54806U 22175BA  23026.48852569  .00004728  00000-0  38067-4 0  9999,2 54806  53.2155 109.7628 0001454  80.0649 280.0536 15.73212703  5987,6727.859,91.532,350.702,348.746,0.0
54806.0,STARLINK-5412,PAYLOAD,2023-01-27 12:07:09,15.73203497,0.0001369,53.2162,104.7307,82.6414,277.4762,-1.3519e-05,-2.517e-05,0.0,0 STARLINK-5412,1 54806U 22175BA  23027.50497486 -.00002517  00000-0 -13519-4 0  9997,2 54806  53.2162 104.7307 0001369  82.6414 277.4762 15.73203497  6147,6727.885,91.533,350.671,348.829,0.0
54806.0,STARLINK-5412,PAYLOAD,2023-01-28 01:50:28,15.73211002,0.0001364,53.2163,101.901,117.5335,242.5824,2.0395e-05,2.244e-05,0.0,0 STARLINK-5412,1 54806U 22175BA  23028.07671969  .00002244  00000-0  20395-4 0  9995,2 54806  53.2163 101.9010 0001364 117.5335 242.5824 15.73211002  6236,6727.8640000000005,91.533,350.646,348.811,0.0
54806.0,STARLINK-5412,PAYLOAD,2023-01-28 10:59:22,15.73194142,0.0001262,53.2176,100.0152,91.3581,268.7584,-3.3531e-07,-6.67e-06,0.0,0 STARLINK-5412,1 54806U 22175BA  23028.45790124 -.00000667  00000-0 -33531-6 0  9999,2 54806  53.2176 100.0152 0001262  91.3581 268.7584 15.73194142  6290,6727.912,91.534,350.626,348.928,0.0
54806.0,STARLINK-5412,PAYLOAD,2023-01-29 02:14:09,15.73203993,0.0001175,53.2173,96.8724,103.6196,256.4956,1.6119e-05,1.643e-05,0.0,0 STARLINK-5412,1 54806U 22175BA  23029.09316927  .00001643  00000-0  16119-4 0  9999,2 54806  53.2173  96.8724 0001175 103.6196 256.4956 15.73203993  6399,6727.884,91.533,350.539,348.958,0.0
54806.0,STARLINK-5412,PAYLOAD,2023-01-29 09:51:33,15.73205146,0.0001366,53.2172,95.2998,93.3655,266.7521,1.6336e-05,1.674e-05,0.0,0 STARLINK-5412,1 54806U 22175BA  23029.41080919  .00001674  00000-0  16336-4 0  9999,2 54806  53.2172  95.2998 0001366  93.3655 266.7521 15.73205146  8601,6727.881,91.533,350.665,348.826,0.0
54806.0,STARLINK-5412,PAYLOAD,2023-01-30 04:09:20,15.73191898,0.0001282,53.2174,91.5286,121.2502,238.8644,-5.7619e-06,-1.428e-05,0.0,0 STARLINK-5412,1 54806U 22175BA  23030.17315943 -.00001428  00000-0 -57619-5 0  9991,2 54806  53.2174  91.5286 0001282 121.2502 238.8644 15.73191898  6568,6727.918,91.534,350.646,348.921,0.0
54806.0,STARLINK-5412,PAYLOAD,2023-01-30 10:15:13,15.73223651,0.0001139,53.2173,90.27,115.8834,244.2304,2.4176e-05,2.778e-05,0.0,0 STARLINK-5412,1 54806U 22175BA  23030.42724495  .00002778  00000-0  24176-4 0  9993,2 54806  53.2173  90.2700 0001139 115.8834 244.2304 15.73223651  6604,6727.828,91.532,350.459,348.926,0.0
54806.0,STARLINK-5412,PAYLOAD,2023-01-30 20:55:36,15.73215173,9.98e-05,53.2169,88.0717,108.499,251.6138,1.6492e-05,1.697e-05,0.0,0 STARLINK-5412,1 54806U 22175BA  23030.87194529  .00001697  00000-0  16492-4 0  9992,2 54806  53.2169  88.0717 0000998 108.4990 251.6138 15.73215173  8839,6727.852,91.532,350.388,349.045,0.0
54806.0,STARLINK-5412,PAYLOAD,2023-01-31 03:01:31,15.73218738,0.000135,53.2163,86.8138,91.9436,268.1739,7.4079e-06,4.2e-06,0.0,0 STARLINK-5412,1 54806U 22175BA  23031.12605657  .00000420  00000-0  74079-5 0  9999,2 54806  53.2163  86.8138 0001350  91.9436 268.1739 15.73218738  6715,6727.842,91.532,350.615,348.798,0.0
54806.0,STARLINK-5412,PAYLOAD,2023-01-31 10:38:55,15.73214084,0.0001095,53.2171,85.2417,85.2192,274.8954,1.612e-05,1.644e-05,0.0,0 STARLINK-5412,1 54806U 22175BA  23031.44369546  .00001644  00000-0  16120-4 0  9999,2 54806  53.2171  85.2417 0001095  85.2192 274.8954 15.73214084  8926,6727.855,91.532,350.457,348.983,0.0
54806.0,STARLINK-5412,PAYLOAD,2023-01-31 22:50:46,15.73205895,0.0001441,53.216,82.7265,71.762,288.3557,5.7454e-06,1.86e-06,0.0,0 STARLINK-5412,1 54806U 22175BA  23031.95192840  .00000186  00000-0  57454-5 0  9992,2 54806  53.2160  82.7265 0001441  71.7620 288.3557 15.73205895  6846,6727.878,91.533,350.713,348.774,0.0
54806.0,STARLINK-5412,PAYLOAD,2023-02-01 09:31:07,15.73209635,0.0001292,53.2164,80.526,76.1437,283.9727,7.1778e-06,3.88e-06,0.0,0 STARLINK-5412,1 54806U 22175BA  23032.39661984  .00000388  00000-0  71778-5 0  9990,2 54806  53.2164  80.5260 0001292  76.1437 283.9727 15.73209635  9074,6727.868,91.533,350.602,348.863,0.0
54806.0,STARLINK-5412,PAYLOAD,2023-02-02 02:17:38,15.7302197,0.0001086,53.2171,77.0688,83.3795,276.7348,-0.00017164,-0.00024453,0.0,0 STARLINK-5412,1 54806U 22175BA  23033.09558492 -.00024453  00000-0 -17164-3 0  9995,2 54806  53.2171  77.0688 0001086  83.3795 276.7348 15.73021970  7021,6728.403,91.544,350.998,349.537,0.0
54806.0,STARLINK-5412,PAYLOAD,2023-02-02 11:28:01,15.71962018,0.0004465,53.217,75.1901,37.1554,322.9774,-0.0011553,-0.00151781,0.0,0 STARLINK-5412,1 54806U 22175BA  23033.47779028 -.00151781  00000-0 -11553-2 0  9997,2 54806  53.2170  75.1901 0004465  37.1554 322.9774 15.71962018  9249,6731.427,91.605,356.298,350.286,0.0
54806.0,STARLINK-5412,PAYLOAD,2023-02-02 22:00:00,15.71136307,0.0001214,53.2155,73.0114,86.6265,243.4975,-0.0074374,-0.00863367,0.0,0 STARLINK-5412,1 54806U 22175BA  23033.91667824 -.00863367  00000-0 -74374-2 0  9996,2 54806  53.2155  73.0114 0001214  86.6265 243.4975 15.71136307  7154,6733.785,91.653,356.468,354.833,0.0
54806.0,STARLINK-5412,PAYLOAD,2023-02-03 14:00:01,15.69855636,0.0001369,53.2154,69.7274,71.9114,69.5763,-0.0080817,-0.00886366,0.0,0 STARLINK-5412,1 54806U 22175BA  23034.58334491 -.00886366  00000-0 -80817-2 0  9994,2 54806  53.2154  69.7274 0001369  71.9114  69.5763 15.69855636  7256,6737.447,91.728,360.234,358.39,0.0
